[{"OBJECT_NAME":"HORS 2","OBJECT_ID":"2023-091AG","EPOCH":"2026-03-09T22:11:34.810944","MEAN_MOTION":15.2928008,"ECCENTRICITY":0.00098173,"INCLINATION":97.5195,"RA_OF_ASC_NODE":134.7443,"ARG_OF_PERICENTER":79.3164,"MEAN_ANOMALY":280.9181,"EPHEMERIS_TYPE":0,"CLASSIFICATION_TYPE":"U","NORAD_CAT_ID":57196,"ELEMENT_SET_NO":999,"REV_AT_EPOCH":14934,"BSTAR":0.00059338338,"MEAN_MOTION_DOT":0.00016821,"MEAN_MOTION_DDOT":0},{"OBJECT_NAME":"STARLINK-34302","OBJECT_ID":"2025-176U","EPOCH":"2026-03-09T11:20:59.403264","MEAN_MOTION":15.30202628,"ECCENTRICITY":0.00012644,"INCLINATION":53.1595,"RA_OF_ASC_NODE":153.9872,"ARG_OF_PERICENTER":134.6336,"MEAN_ANOMALY":225.4768,"EPHEMERIS_TYPE":0,"CLASSIFICATION_TYPE":"U","NORAD_CAT_ID":65216,"ELEMENT_SET_NO":999,"REV_AT_EPOCH":3308,"BSTAR":0.00072557664,"MEAN_MOTION_DOT":0.00021193,"MEAN_MOTION_DDOT":0}]
